COMSATBW-1              
1 35943U 09054B   16343.14014064  .00000030  00000-0  00000+0 0  9991
2 35943   0.0568  94.4250 0003268 170.3516 286.0115  1.00272172 26385
NSS-12                  
1 36032U 09058A   16342.62796602  .00000077  00000-0  00000+0 0  9993
2 36032   0.0393 329.6691 0002862 299.2656  91.0325  1.00271056 26060
THOR 6                  
1 36033U 09058B   16343.02764384 -.00000004  00000-0  00000+0 0  9992
2 36033   0.0184 235.6487 0002100  38.4537 172.2208  1.00270180 26085
INTELSAT 14 (IS-14)     
1 36097U 09064A   16341.91347121 -.00000267  00000-0  00000+0 0  9992
2 36097   0.0125 308.4020 0002821 314.5825  97.0074  1.00271431 25826
EUTELSAT 36B            
1 36101U 09065A   16342.76841138  .00000161  00000-0  00000+0 0  9992
2 36101   0.0634   2.7286 0004779 258.4309 128.3446  1.00271165 25939
INTELSAT 15 (IS-15)     
1 36106U 09067A   16342.79803616 -.00000179  00000-0  00000+0 0  9991
2 36106   0.0092 350.0682 0002383 266.9466 192.4333  1.00270247 25722
DIRECTV 12              
1 36131U 09075A   16342.33510265 -.00000097  00000-0  00000+0 0  9992
2 36131   0.0267 165.8615 0000365 358.1598 290.3741  1.00271348 25500
BEIDOU G1               
1 36287U 10001A   16341.75257668 -.00000279  00000-0  10000-3 0  9992
2 36287   1.5337   8.2330 0005595 230.6229 247.9637  1.00266329 25285
RADUGA-1M 2             
1 36358U 10002A   16342.50977223  .00000098  00000-0  10000-3 0  9990
2 36358   0.0091  21.3524 0003448 274.9471  48.8480  1.00265518 25138
SDO                     
1 36395U 10005A   16342.46210749 -.00000022  00000-0  00000+0 0  9995
2 36395  28.5613 143.8784 0001847 140.5400 217.0013  1.00271766 25148
INTELSAT 16 (IS-16)     
1 36397U 10006A   16343.32667286 -.00000279  00000-0  00000+0 0  9990
2 36397   0.0114 315.5310 0002433 325.0472 216.4440  1.00269818 24865
GOES 15                 
1 36411U 10008A   16343.16109431  .00000095  00000-0  00000+0 0  9999
2 36411   0.1841 267.2417 0001865 306.5910 146.1785  1.00274065 24816
ECHOSTAR 14             
1 36499U 10010A   16343.17695127  .00000006  00000-0  00000+0 0  9993
2 36499   0.0170 312.1692 0003020 303.7097 126.3065  1.00271713 24662
SES-1                   
1 36516U 10016A   16341.51946252 -.00000108  00000-0  00000-0 0  9998
2 36516   0.0173  11.0455 0001868 239.8750 270.8407  1.00271792 24178
ASTRA 3B                
1 36581U 10021A   16342.95995922  .00000143  00000-0  00000+0 0  9990
2 36581   0.0458 327.2682 0002969 294.5901 184.3844  1.00274016 23770
COMSATBW-2              
1 36582U 10021B   16343.27296838  .00000094  00000-0  00000+0 0  9992
2 36582   0.0422 284.5519 0002659 347.5089 276.8788  1.00269873 24116
BEIDOU G3               
1 36590U 10024A   16342.94253124 -.00000349  00000-0  00000+0 0  9992
2 36590   1.4134  28.6079 0006219 296.9765 201.4049  1.00267364 23905
BADR-5                  
1 36592U 10025A   16342.66817369  .00000151  00000-0  00000+0 0  9991
2 36592   0.0365 130.5965 0003941  94.5818 118.2406  1.00273346 24017
COMS 1                  
1 36744U 10032A   16343.37473074 -.00000339  00000-0  00000+0 0  9997
2 36744   0.0204 342.5624 0001132 289.4078  68.6999  1.00267482 23779
ARABSAT-5A              
1 36745U 10032B   16342.95738538  .00000159  00000-0  00000+0 0  9999
2 36745   0.0526   7.3911 0003065 249.0641 195.8413  1.00270933 23754
ECHOSTAR 15             
1 36792U 10034A   16342.46032442 -.00000276  00000-0  00000+0 0  9991
2 36792   0.0245 318.3697 0002591 309.5401 272.8482  1.00271591 23516
NILESAT 201             
1 36830U 10037A   16343.15282499 -.00000052  00000-0  00000+0 0  9995
2 36830   0.0538 150.3736 0003262  89.0242 245.9869  1.00272095 23410
RASCOM-QAF 1R           
1 36831U 10037B   16342.77799429  .00000024  00000-0  00000+0 0  9997
2 36831   0.0124  32.5888 0006736 229.4403  97.9175  1.00271785 23419
CHINASAT 6A (ZX 6A)     
1 37150U 10042A   16342.87402479 -.00000348  00000-0  00000+0 0  9995
2 37150   0.0195  76.8925 0000509  13.0922  66.8163  1.00270856 23027
QZS-1 (MICHIBIKI)       
1 37158U 10045A   16343.21590777 -.00000044  00000-0  00000+0 0  9997
2 37158  40.7628 162.1032 0745364 269.9283 221.5313  1.00277540 22845
XM-5                    
1 37185U 10053A   16342.30965837 -.00000199  00000-0  00000+0 0  9999
2 37185   0.0039 340.5306 0000344 135.9480 346.3092  1.00270299 22562
BSAT-3B                 
1 37207U 10056B   16343.00352478 -.00000344  00000-0  00000+0 0  9998
2 37207   0.0623 313.6730 0005036 333.7402 260.9320  1.00269210 22390
BEIDOU G4               
1 37210U 10057A   16343.45512325  .00000000  00000-0  10000-3 0  9994
2 37210   0.7574  42.8158 0008116 185.7940 172.7876  1.00266750 22409
SKYTERRA 1              
1 37218U 10061A   16342.97950071 -.00000114  00000-0  00000+0 0  9999
2 37218   3.4615 328.5328 0003402 224.3096 135.6651  1.00271454 22351
ZHONGXING-20A           
1 37234U 10064A   16342.87525903 -.00000331  00000-0  00000+0 0  9992
2 37234   0.0514 255.6818 0003982  35.1745 231.3775  1.00272364 22156
HYLAS 1                 
1 37237U 10065A   16343.40709662 -.00000228  00000-0  00000+0 0  9997
2 37237   0.0314  23.1804 0001773 237.9968 289.5222  1.00271896 22134
INTELSAT 17 (IS-17)     
1 37238U 10065B   16342.81113572  .00000004  00000-0  00000+0 0  9992
2 37238   0.0123  74.7534 0002621 196.9891 163.2787  1.00271554 22042
EUTELSAT KA-SAT 9A      
1 37258U 10069A   16340.76653081  .00000069  00000-0  00000+0 0  9995
2 37258   0.0507 292.3491 0002872 330.3504  97.2928  1.00269411 21921
HISPASAT 1E             
1 37264U 10070A   16342.26629534 -.00000210  00000-0  00000+0 0  9996
2 37264   0.0401 143.7618 0003364  87.3065 271.2759  1.00269627 21788
KOREASAT 6              
1 37265U 10070B   16342.87453589 -.00000356  00000-0  00000+0 0  9990
2 37265   0.0145 310.2738 0001662 301.9945 255.6431  1.00270064 21802
ELEKTRO-L 1 (GOMS 2)    
1 37344U 11001A   16343.32756476 -.00000147  00000-0  00000+0 0  9993
2 37344   2.0498  78.5176 0003190 255.2289 202.6399  1.00249298 21599
BEIDOU IGSO 3           
1 37384U 11013A   16342.87792436 -.00000192  00000-0  10000-3 0  9990
2 37384  57.5874  74.9433 0026780 205.7351 232.0920  1.00261053 20805
INTELSAT NEW DAWN       
1 37392U 11016A   16342.71164579  .00000162  00000-0  00000+0 0  9997
2 37392   0.0176 259.8128 0001047   9.7874  96.3212  1.00275030 20634
YAHSAT 1A               
1 37393U 11016B   16343.54374852 -.00000132  00000-0  10000-3 0  9990
2 37393   0.0190 324.3044 0002544 326.8802  34.8503  1.00270955 20690
TELSTAR 14R             
1 37602U 11021A   16342.54476307 -.00000274  00000-0  00000+0 0  9998
2 37602   0.0196 327.4818 0001993 292.0851 310.2982  1.00270003 20907
GSAT-8                  
1 37605U 11022A   16342.78301770  .00000090  00000-0  00000+0 0  9994
2 37605   0.0411 143.5379 0008491 118.7003 151.7118  1.00272461 20361
ST-2                    
1 37606U 11022B   16343.06644828 -.00000205  00000-0  00000+0 0  9990
2 37606   0.0119 295.0018 0001955 332.5460 281.6364  1.00269031 20377
CHINASAT 10 (ZX 10)     
1 37677U 11026A   16342.57575402 -.00000346  00000-0  00000+0 0  9994
2 37677   0.0056  36.1613 0005269 220.4867 137.9303  1.00269814 20092
TIANLIAN 1-02           
1 37737U 11032A   16342.73254042  .00000035  00000-0  00000+0 0  9994
2 37737   2.2020  78.3073 0009638 173.6867 265.3606  1.00271348 19843
GSAT-12                 
1 37746U 11034A   16343.00986469 -.00000159  00000-0  00000+0 0  9990
2 37746   0.0343 284.5705 0003802 214.6328  24.5531  1.00272600 20076
SES-3                   
1 37748U 11035A   16341.40720409 -.00000095  00000-0  00000+0 0  9994
2 37748   0.0155  10.4710 0002589 232.8043 235.9550  1.00269855 19804
KAZSAT-2                
1 37749U 11035B   16342.76572561 -.00000192  00000-0  00000+0 0  9997
2 37749   0.0046 307.0755 0000921  16.9826 115.0466  1.00274247 19698
ASTRA 1N                
1 37775U 11041A   16343.20822620  .00000125  00000-0  00000+0 0  9992
2 37775   0.0505   7.1299 0001078 309.7548 214.7060  1.00270470 19529
BSAT-3C (JCSAT-110R)    
1 37776U 11041B   16343.00352478 -.00000345  00000-0  00000+0 0  9995
2 37776   0.0104 303.8864 0000682  18.5347 226.0165  1.00268338 19646
PAKSAT-1R               
1 37779U 11042A   16342.19254140  .00000160  00000-0  00000+0 0  9999
2 37779   0.0202 110.4111 0002724 162.0032 271.2936  1.00273756 19390
CHINASAT 1A (ZX 1A)     
1 37804U 11047A   16343.51349682 -.00000332  00000-0  00000+0 0  9998
2 37804   0.0443 236.7252 0002005  65.6833  90.0121  1.00269769 19216
COSMOS 2473             
1 37806U 11048A   16341.82616601 -.00000101  00000-0  00000+0 0  9995
2 37806   0.0586 116.3659 0004426 170.6478  72.9617  1.00272742 19181
SES-2                   
1 37809U 11049A   16343.29496941 -.00000190  00000-0  00000+0 0  9993
2 37809   0.0127   1.8886 0002635 261.0593 193.7430  1.00270800 19142
ARABSAT-5C              
1 37810U 11049B   16342.13866913  .00000130  00000-0  00000+0 0  9990
2 37810   0.0628 354.3024 0002832 257.5939 254.3840  1.00272480 19025
EUTELSAT 7 WEST A       
1 37816U 11051A   16340.81167860 -.00000053  00000-0  00000+0 0  9992
2 37816   0.0590 359.7127 0005344 234.8753 125.3869  1.00269483 19077
QUETZSAT 1              
1 37826U 11054A   16343.23242640 -.00000236  00000-0  00000+0 0  9998
2 37826   0.0534  72.6742 0002597 182.6534 188.7768  1.00269805 19220
INTELSAT 18 (IS-18)     
1 37834U 11056A   16343.29090963  .00000000  00000-0  10000-3 0  9997
2 37834   0.0150  51.1753 0002365 216.9753  94.0625  1.00269571 18976
EUTELSAT 16A            
1 37836U 11057A   16343.08313367  .00000110  00000-0  00000+0 0  9990
2 37836   0.0636 357.2144 0005289 267.1362 218.8685  1.00274182 18913
VIASAT-1                
1 37843U 11059A   16342.29196257 -.00000018  00000-0  00000+0 0  9997
2 37843   0.0063   3.3367 0002277 250.7301 172.4573  1.00272738 19395
